STARLINK-32092          
1 59700U 24086U   26068.05343544  .00000253  00000+0  18739-4 0  9992
2 59700  43.0043  63.5881 0001603 271.6873  88.3795 15.27581312104013
BANDWAGON-2 OBJECT D    
1 62380U 24247D   26068.52261193  .00011259  00000+0  40119-3 0  9994
2 62380  44.9954 115.6710 0003488 351.1453   8.9368 15.29076102 67732
